FLOCK 4G-8              
1 62613U 25009E   26115.80251277  .00012439  00000+0  44784-3 0  9999
2 62613  97.4007 198.0685 0005639 133.2557 226.9155 15.28711170 70913
FLOCK 4G-13             
1 62621U 25009N   26115.75673693  .00057127  00000+0  15174-2 0  9995
2 62621  97.3974 198.3520 0005809 149.4558 210.7026 15.38058703 70920
FLOCK 4G-9              
1 62622U 25009P   26115.86903269  .00010594  00000+0  40057-3 0  9999
2 62622  97.3959 197.2411 0005922 138.7956 221.3731 15.27132733 70879
FLOCK 4G-7              
1 62624U 25009R   26115.76312367  .00010814  00000+0  39590-3 0  9998
2 62624  97.3948 197.4224 0004169 132.1268 228.0327 15.28202252 70891
FLOCK 4G-12             
1 62625U 25009S   26115.75225492  .00011398  00000+0  41877-3 0  9999
2 62625  97.4022 197.8922 0005709 129.8203 230.3539 15.28063165 70897
FLOCK 4G-11             
1 62629U 25009W   26115.94136635  .00012663  00000+0  46214-3 0  9990
2 62629  97.3926 197.7245 0004188 132.8066 227.3526 15.28264246 70931
PELICAN-2               
1 62631U 25009Y   26115.82478959  .00034681  00000+0  85505-3 0  9998
2 62631  97.3598 206.6308 0003558  98.4274 261.7376 15.40471304 71493
FLOCK 4G-26             
1 62633U 25009AA  26115.76443813  .00011690  00000+0  42608-3 0  9996
2 62633  97.4017 198.0375 0004943 123.9168 236.2542 15.28324149 70902
FLOCK 4G-28             
1 62634U 25009AB  26115.75384703  .00008564  00000+0  26295-3 0  9998
2 62634  97.4018 200.1414 0003369 120.3676 239.7900 15.33969559 71047
FLOCK 4G-20             
1 62636U 25009AD  26115.74613773  .00075643  00000+0  16522-2 0  9994
2 62636  97.3889 199.0002 0004246 171.9488 188.1830 15.43911633 71007
FLOCK 4G-24             
1 62637U 25009AE  26115.73352987  .00010738  00000+0  38522-3 0  9990
2 62637  97.4022 198.2505 0004599 114.4374 245.7346 15.28870309 70912
FLOCK 4G-3              
1 62639U 25009AG  26115.89438097  .00012103  00000+0  44164-3 0  9993
2 62639  97.4027 198.1839 0004469 119.8579 240.3106 15.28280879 70912
FLOCK 4G-27             
1 62641U 25009AJ  26115.91181934  .00012673  00000+0  46274-3 0  9990
2 62641  97.3938 197.6510 0003720 122.9003 237.2595 15.28250741 70913
FLOCK 4G-29             
1 62642U 25009AK  26115.77156020  .00010818  00000+0  39405-3 0  9990
2 62642  97.4021 198.0190 0004468 116.9208 243.2489 15.28367647 70897
FLOCK 4G-22             
1 62645U 25009AN  26115.78282461  .00010545  00000+0  38575-3 0  9997
2 62645  97.4011 198.0953 0003993 117.0545 243.1103 15.28236484 70913
FLOCK 4G-25             
1 62646U 25009AP  26115.76689503  .00010729  00000+0  39023-3 0  9997
2 62646  97.4014 198.1270 0003460 123.3533 236.8038 15.28422740 70914
